NORAD_CAT_ID,OBJECT_NAME,OBJECT_TYPE,EPOCH,MEAN_MOTION,ECCENTRICITY,INCLINATION,RA_OF_ASC_NODE,ARG_OF_PERICENTER,MEAN_ANOMALY,BSTAR,MEAN_MOTION_DOT,MEAN_MOTION_DDOT,TLE_LINE0,TLE_LINE1,TLE_LINE2,SEMIMAJOR_AXIS,PERIOD,APOGEE,PERIGEE,DECAYED
52333.0,STARLINK-3847,PAYLOAD,2024-02-22 03:06:10,15.08836078,0.0001615,53.2181,320.5633,92.9753,267.1424,3.6221e-05,2.88e-06,0.0,0 STARLINK-3847,1 52333U 22045C   24053.12928926  .00000288  00000-0  36221-4 0  9998,2 52333  53.2181 320.5633 0001615  92.9753 267.1424 15.08836078102924,6917.892,95.438,540.875,538.64,0.0
52333.0,STARLINK-3847,PAYLOAD,2024-02-22 11:03:06,15.08837967,0.0001638,53.219,319.0761,90.9485,269.1695,7.9497e-05,9.77e-06,0.0,0 STARLINK-3847,1 52333U 22045C   24053.46048972  .00000977  00000-0  79497-4 0  9996,2 52333  53.2190 319.0761 0001638  90.9485 269.1695 15.08837967102979,6917.887,95.438,540.885,538.618,0.0
52333.0,STARLINK-3847,PAYLOAD,2024-02-22 22:10:47,15.08849462,0.0001598,53.2185,316.9931,111.0441,249.0722,0.00013544,1.869e-05,0.0,0 STARLINK-3847,1 52333U 22045C   24053.92416273  .00001869  00000-0  13544-3 0  9991,2 52333  53.2185 316.9931 0001598 111.0441 249.0722 15.08849462103040,6917.851,95.437,540.822,538.611,0.0
52333.0,STARLINK-3847,PAYLOAD,2024-02-23 02:56:56,15.08855229,0.0001695,53.2189,316.1008,86.7957,273.3229,0.00026861,3.991e-05,0.0,0 STARLINK-3847,1 52333U 22045C   24054.12288087  .00003991  00000-0  26861-3 0  9998,2 52333  53.2189 316.1008 0001695  86.7957 273.3229 15.08855229103072,6917.834,95.437,540.871,538.526,0.0
52333.0,STARLINK-3847,PAYLOAD,2024-02-23 10:53:53,15.08841031,0.000133,53.2178,314.6151,85.116,274.9983,9.0564e-05,1.154e-05,0.0,0 STARLINK-3847,1 52333U 22045C   24054.45408670  .00001154  00000-0  90564-4 0  9997,2 52333  53.2178 314.6151 0001330  85.1160 274.9983 15.08841031103123,6917.877,95.437,540.662,538.822,0.0
52333.0,STARLINK-3847,PAYLOAD,2024-02-23 22:01:35,15.08840589,0.000161,53.2185,312.5329,91.8536,268.2641,0.00016518,2.342e-05,0.0,0 STARLINK-3847,1 52333U 22045C   24054.91776961  .00002342  00000-0  16518-3 0  9995,2 52333  53.2185 312.5329 0001610  91.8536 268.2641 15.08840589103198,6917.879,95.438,540.857,538.63,0.0
52333.0,STARLINK-3847,PAYLOAD,2024-02-24 02:47:44,15.08843292,0.000164,53.2187,311.6385,95.103,265.0149,0.00017951,2.57e-05,0.0,0 STARLINK-3847,1 52333U 22045C   24055.11648820  .00002570  00000-0  17951-3 0  9995,2 52333  53.2187 311.6385 0001640  95.1030 265.0149 15.08843292103227,6917.87,95.437,540.87,538.601,0.0
52333.0,STARLINK-3847,PAYLOAD,2024-02-25 20:07:45,15.08854736,0.0001586,53.218,303.9087,90.7402,269.3772,0.00036665,5.554e-05,0.0,0 STARLINK-3847,1 52333U 22045C   24056.83872174  .00005554  00000-0  36665-3 0  9994,2 52333  53.2180 303.9087 0001586  90.7402 269.3772 15.08854736103488,6917.835,95.437,540.798,538.603,0.0
52333.0,STARLINK-3847,PAYLOAD,2024-02-25 23:18:31,15.08857175,0.0001414,53.2165,303.3139,84.9475,275.1678,0.0003829,5.814e-05,0.0,0 STARLINK-3847,1 52333U 22045C   24056.97119970  .00005814  00000-0  38290-3 0  9992,2 52333  53.2165 303.3139 0001414  84.9475 275.1678 15.08857175103501,6917.828,95.436,540.671,538.715,0.0
52333.0,STARLINK-3847,PAYLOAD,2024-02-26 02:29:17,15.08857825,0.0001371,53.2167,302.7193,83.409,276.7058,0.00036554,5.537e-05,0.0,0 STARLINK-3847,1 52333U 22045C   24057.10367833  .00005537  00000-0  36554-3 0  9994,2 52333  53.2167 302.7193 0001371  83.4090 276.7058 15.08857825103528,6917.826,95.436,540.639,538.742,0.0
52333.0,STARLINK-3847,PAYLOAD,2024-02-26 19:58:33,15.0883283,0.0001306,53.2166,299.4534,88.3876,271.7266,-0.00011432,-2.106e-05,0.0,0 STARLINK-3847,1 52333U 22045C   24057.83232673 -.00002106  00000-0 -11432-3 0  9996,2 52333  53.2166 299.4534 0001306  88.3876 271.7266 15.08832830103639,6917.902,95.438,540.671,538.864,0.0
52333.0,STARLINK-3847,PAYLOAD,2024-02-26 21:33:56,15.08834259,0.0001387,53.2169,299.155,96.7244,263.3906,-0.00010109,-1.896e-05,0.0,0 STARLINK-3847,1 52333U 22045C   24057.89856609 -.00001896  00000-0 -10109-3 0  9998,2 52333  53.2169 299.1550 0001387  96.7244 263.3906 15.08834259103644,6917.898,95.438,540.722,538.803,0.0
52333.0,STARLINK-3847,PAYLOAD,2024-02-27 08:41:38,15.08833869,0.0001293,53.216,297.0705,87.128,272.986,-2.1576e-05,-6.31e-06,0.0,0 STARLINK-3847,1 52333U 22045C   24058.36224854 -.00000631  00000-0 -21576-4 0  9999,2 52333  53.2160 297.0705 0001293  87.1280 272.9860 15.08833869103713,6917.899,95.438,540.659,538.87,0.0
52333.0,STARLINK-3847,PAYLOAD,2024-02-27 21:24:43,15.08834831,0.0001326,53.2158,294.6916,87.4237,272.6907,4.7492e-05,4.68e-06,0.0,0 STARLINK-3847,1 52333U 22045C   24058.89217156  .00000468  00000-0  47492-4 0  9995,2 52333  53.2158 294.6916 0001326  87.4237 272.6907 15.08834831103796,6917.896,95.438,540.679,538.844,0.0
52333.0,STARLINK-3847,PAYLOAD,2024-02-28 00:35:29,15.08838685,0.000137,53.2163,294.0971,88.2622,271.8527,0.00014414,2.007e-05,0.0,0 STARLINK-3847,1 52333U 22045C   24059.02465091  .00002007  00000-0  14414-3 0  9992,2 52333  53.2163 294.0971 0001370  88.2622 271.8527 15.08838685103816,6917.884,95.438,540.697,538.802,0.0
52333.0,STARLINK-3847,PAYLOAD,2024-02-28 08:32:25,15.08839665,0.000142,53.2163,292.6101,84.1382,275.9772,0.00018804,2.706e-05,0.0,0 STARLINK-3847,1 52333U 22045C   24059.35585217  .00002706  00000-0  18804-3 0  9994,2 52333  53.2163 292.6101 0001420  84.1382 275.9772 15.08839665103860,6917.881,95.438,540.729,538.764,0.0
52333.0,STARLINK-3847,PAYLOAD,2024-02-28 22:50:54,15.08841169,0.0001518,53.2166,289.9332,81.5284,278.588,0.00026073,3.864e-05,0.0,0 STARLINK-3847,1 52333U 22045C   24059.95201420  .00003864  00000-0  26073-3 0  9994,2 52333  53.2166 289.9332 0001518  81.5284 278.5880 15.08841169103959,6917.877,95.437,540.792,538.692,0.0
52333.0,STARLINK-3847,PAYLOAD,2024-02-29 08:23:12,15.08842601,0.0001505,53.2166,288.1506,86.8287,273.2877,0.00023241,3.413e-05,0.0,0 STARLINK-3847,1 52333U 22045C   24060.34945421  .00003413  00000-0  23241-3 0  9999,2 52333  53.2166 288.1506 0001505  86.8287 273.2877 15.08842601104018,6917.872,95.437,540.779,538.696,0.0
52333.0,STARLINK-3847,PAYLOAD,2024-02-29 14:44:45,15.08840783,0.0001406,53.2161,286.9626,86.9415,273.1738,0.00019182,2.766e-05,0.0,0 STARLINK-3847,1 52333U 22045C   24060.61441502  .00002766  00000-0  19182-3 0  9999,2 52333  53.2161 286.9626 0001406  86.9415 273.1738 15.08840783104054,6917.878,95.438,540.716,538.77,0.0
52333.0,STARLINK-3847,PAYLOAD,2024-02-29 22:41:40,15.08845265,0.0001415,53.216,285.4761,85.8238,274.2916,0.00015846,2.235e-05,0.0,0 STARLINK-3847,1 52333U 22045C   24060.94561281  .00002235  00000-0  15846-3 0  9996,2 52333  53.2160 285.4761 0001415  85.8238 274.2916 15.08845265104104,6917.864,95.437,540.708,538.75,0.0
52333.0,STARLINK-3847,PAYLOAD,2024-03-01 08:13:59,15.08845868,0.0001358,53.2156,283.6916,85.5994,274.5153,0.00017824,2.55e-05,0.0,0 STARLINK-3847,1 52333U 22045C   24061.34305246  .00002550  00000-0  17824-3 0  9996,2 52333  53.2156 283.6916 0001358  85.5994 274.5153 15.08845868104164,6917.862,95.437,540.667,538.788,0.0
52333.0,STARLINK-3847,PAYLOAD,2024-03-01 20:57:04,15.08847317,0.0001392,53.2156,281.3123,86.2744,273.8408,0.00013023,1.786e-05,0.0,0 STARLINK-3847,1 52333U 22045C   24061.87297045  .00001786  00000-0  13023-3 0  9998,2 52333  53.2156 281.3123 0001392  86.2744 273.8408 15.08847317104243,6917.858,95.437,540.686,538.76,0.0
52333.0,STARLINK-3847,PAYLOAD,2024-03-02 19:12:28,15.08845536,0.000138,53.2152,277.149,85.7835,274.3315,0.00013766,1.904e-05,0.0,0 STARLINK-3847,1 52333U 22045C   24062.80033003  .00001904  00000-0  13766-3 0  9990,2 52333  53.2152 277.1490 0001380  85.7835 274.3315 15.08845536104380,6917.863,95.437,540.683,538.774,0.0
52333.0,STARLINK-3847,PAYLOAD,2024-03-02 20:47:51,15.08846361,0.0001359,53.2154,276.8516,85.0264,275.0884,0.00010668,1.411e-05,0.0,0 STARLINK-3847,1 52333U 22045C   24062.86656901  .00001411  00000-0  10668-3 0  9995,2 52333  53.2154 276.8516 0001359  85.0264 275.0884 15.08846361104399,6917.861,95.437,540.666,538.786,0.0
52333.0,STARLINK-3847,PAYLOAD,2024-03-03 14:17:06,15.08839419,0.0001486,53.2159,273.5804,84.5609,275.5553,3.1351e-05,2.11e-06,0.0,0 STARLINK-3847,1 52333U 22045C   24063.59521259  .00000211  00000-0  31351-4 0  9993,2 52333  53.2159 273.5804 0001486  84.5609 275.5553 15.08839419104503,6917.882,95.438,540.775,538.719,0.0
52333.0,STARLINK-3847,PAYLOAD,2024-03-03 20:38:38,15.08840602,0.0001521,53.2172,272.3929,100.0009,260.1155,3.6277e-05,2.89e-06,0.0,0 STARLINK-3847,1 52333U 22045C   24063.86017202  .00000289  00000-0  36277-4 0  9998,2 52333  53.2172 272.3929 0001521 100.0009 260.1155 15.08840602104549,6917.879,95.438,540.796,538.691,0.0
52333.0,STARLINK-3847,PAYLOAD,2024-03-03 23:49:24,15.08848616,0.0001346,53.2166,271.7918,90.5844,269.5302,4.9016e-05,4.92e-06,0.0,0 STARLINK-3847,1 52333U 22045C   24063.99264570  .00000492  00000-0  49016-4 0  9995,2 52333  53.2166 271.7918 0001346  90.5844 269.5302 15.08848616104560,6917.854,95.437,540.65,538.788,0.0
52333.0,STARLINK-3847,PAYLOAD,2024-03-04 20:29:24,15.08853804,0.0001273,53.2154,267.9284,86.6533,273.4604,0.0002003,2.902e-05,0.0,0 STARLINK-3847,1 52333U 22045C   24064.85376079  .00002902  00000-0  20030-3 0  9991,2 52333  53.2154 267.9284 0001273  86.6533 273.4604 15.08853804104698,6917.838,95.437,540.584,538.823,0.0
52333.0,STARLINK-3847,PAYLOAD,2024-03-05 13:58:39,15.08847735,0.0001423,53.2162,264.6607,94.3839,265.7316,0.00011505,1.544e-05,0.0,0 STARLINK-3847,1 52333U 22045C   24065.58240031  .00001544  00000-0  11505-3 0  9998,2 52333  53.2162 264.6607 0001423  94.3839 265.7316 15.08847735104805,6917.857,95.437,540.706,538.737,0.0
52333.0,STARLINK-3847,PAYLOAD,2024-03-05 20:20:11,15.08850227,0.0001386,53.2164,263.4711,94.1786,265.9364,0.00011678,1.572e-05,0.0,0 STARLINK-3847,1 52333U 22045C   24065.84735685  .00001572  00000-0  11678-3 0  9993,2 52333  53.2164 263.4711 0001386  94.1786 265.9364 15.08850227104846,6917.849,95.437,540.673,538.755,0.0
